[{"OBJECT_NAME":"STARLINK-11232 [DTC]","OBJECT_ID":"2024-141D","EPOCH":"2026-03-09T06:56:26.845440","MEAN_MOTION":15.69730151,"ECCENTRICITY":0.000132,"INCLINATION":53.1592,"RA_OF_ASC_NODE":87.9692,"ARG_OF_PERICENTER":100.2843,"MEAN_ANOMALY":259.8324,"EPHEMERIS_TYPE":0,"CLASSIFICATION_TYPE":"U","NORAD_CAT_ID":60401,"ELEMENT_SET_NO":999,"REV_AT_EPOCH":9168,"BSTAR":1.2142619e-5,"MEAN_MOTION_DOT":8.83e-6,"MEAN_MOTION_DDOT":0},{"OBJECT_NAME":"FLOCK 4BE-33","OBJECT_ID":"2024-149AL","EPOCH":"2026-03-09T17:20:04.915968","MEAN_MOTION":15.65897746,"ECCENTRICITY":0.00075386,"INCLINATION":97.3675,"RA_OF_ASC_NODE":153.2317,"ARG_OF_PERICENTER":245.686,"MEAN_ANOMALY":114.3613,"EPHEMERIS_TYPE":0,"CLASSIFICATION_TYPE":"U","NORAD_CAT_ID":60502,"ELEMENT_SET_NO":999,"REV_AT_EPOCH":8711,"BSTAR":0.0014774544,"MEAN_MOTION_DOT":0.00152703,"MEAN_MOTION_DDOT":0}]
